STARLINK-36401
1 67696U 26025D   26090.83335647 -.01929463  00000+0 -61064-1 0  9998
2 67696  97.2854 203.2335 0001845  81.5581  63.0141 15.36292942  5840
